NORAD_CAT_ID,OBJECT_NAME,OBJECT_TYPE,EPOCH,MEAN_MOTION,ECCENTRICITY,INCLINATION,RA_OF_ASC_NODE,ARG_OF_PERICENTER,MEAN_ANOMALY,BSTAR,MEAN_MOTION_DOT,MEAN_MOTION_DDOT,TLE_LINE0,TLE_LINE1,TLE_LINE2,SEMIMAJOR_AXIS,PERIOD,APOGEE,PERIGEE,DECAYED
52495.0,STARLINK-3905,PAYLOAD,2023-09-12 03:34:56,15.08841029,0.0001244,53.2189,172.2046,83.416,276.6973,6.9936e-05,8.25e-06,0.0,0 STARLINK-3905,1 52495U 22049AW  23255.14926433  .00000825  00000-0  69936-4 0  9993,2 52495  53.2189 172.2046 0001244  83.4160 276.6973 15.08841029 75088,6917.877,95.437,540.603,538.882,0.0
52495.0,STARLINK-3905,PAYLOAD,2023-09-13 06:36:28,15.08854459,0.0001327,53.2183,167.1508,93.0819,267.0325,0.0001839,2.641e-05,0.0,0 STARLINK-3905,1 52495U 22049AW  23256.27533396  .00002641  00000-0  18390-3 0  9995,2 52495  53.2183 167.1508 0001327  93.0819 267.0325 15.08854459 75411,6917.836,95.437,540.619,538.783,0.0
52495.0,STARLINK-3905,PAYLOAD,2023-09-13 17:44:10,15.08854065,0.0001358,53.2175,165.0689,85.61,274.5047,0.00016316,2.311e-05,0.0,0 STARLINK-3905,1 52495U 22049AW  23256.73901207  .00002311  00000-0  16316-3 0  9996,2 52495  53.2175 165.0689 0001358  85.6100 274.5047 15.08854065 75320,6917.837,95.437,540.642,538.763,0.0
52495.0,STARLINK-3905,PAYLOAD,2023-09-14 01:41:07,15.08808613,0.0001339,53.2177,163.5814,90.8772,269.2374,0.00010371,1.362e-05,0.0,0 STARLINK-3905,1 52495U 22049AW  23257.07022065  .00001362  00000-0  10371-3 0  9990,2 52495  53.2177 163.5814 0001339  90.8772 269.2374 15.08808613 75532,6917.976,95.44,540.768,538.915,0.0
52495.0,STARLINK-3905,PAYLOAD,2023-09-14 03:16:30,15.08808699,0.0001352,53.2178,163.2843,90.82,269.2947,0.00010571,1.394e-05,0.0,0 STARLINK-3905,1 52495U 22049AW  23257.13646207  .00001394  00000-0  10571-3 0  9994,2 52495  53.2178 163.2843 0001352  90.8200 269.2947 15.08808699 75386,6917.976,95.44,540.776,538.906,0.0
52495.0,STARLINK-3905,PAYLOAD,2023-09-15 03:07:16,15.08841191,0.0001352,53.2178,158.8242,91.0549,269.0598,0.00033919,5.115e-05,0.0,0 STARLINK-3905,1 52495U 22049AW  23258.13004950  .00005115  00000-0  33919-3 0  9994,2 52495  53.2178 158.8242 0001352  91.0549 269.0598 15.08841191 75696,6917.877,95.437,540.677,538.806,0.0
52495.0,STARLINK-3905,PAYLOAD,2023-09-15 17:25:45,15.08829364,0.0001278,53.2179,156.1481,98.5089,261.6048,0.00019079,2.749e-05,0.0,0 STARLINK-3905,1 52495U 22049AW  23258.72622506  .00002749  00000-0  19079-3 0  9993,2 52495  53.2179 156.1481 0001278  98.5089 261.6048 15.08829364 75787,6917.913,95.438,540.662,538.894,0.0
52495.0,STARLINK-3905,PAYLOAD,2023-09-16 02:58:04,15.08839469,0.0001301,53.2176,154.3639,96.5238,263.5902,0.00026954,4.004e-05,0.0,0 STARLINK-3905,1 52495U 22049AW  23259.12366047  .00004004  00000-0  26954-3 0  9999,2 52495  53.2176 154.3639 0001301  96.5238 263.5902 15.08839469 75844,6917.882,95.438,540.647,538.847,0.0
52495.0,STARLINK-3905,PAYLOAD,2023-09-16 23:38:05,15.08841842,0.0001263,53.2173,150.4972,89.4253,270.6884,-3.97e-05,-9.2e-06,0.0,0 STARLINK-3905,1 52495U 22049AW  23259.98478882 -.00000920  00000-0 -39700-4 0  9993,2 52495  53.2173 150.4972 0001263  89.4253 270.6884 15.08841842 75973,6917.875,95.437,540.613,538.866,0.0
52495.0,STARLINK-3905,PAYLOAD,2023-09-18 02:39:38,15.08856786,0.0001264,53.2162,145.4441,91.7838,268.3299,0.00032835,4.944e-05,0.0,0 STARLINK-3905,1 52495U 22049AW  23261.11085977  .00004944  00000-0  32835-3 0  9999,2 52495  53.2162 145.4441 0001264  91.7838 268.3299 15.08856786 76149,6917.829,95.436,540.568,538.82,0.0
52495.0,STARLINK-3905,PAYLOAD,2023-09-18 20:08:53,15.08841672,0.0001641,53.2163,142.169,110.5944,249.5224,8.5824e-05,1.078e-05,0.0,0 STARLINK-3905,1 52495U 22049AW  23261.83950676  .00001078  00000-0  85824-4 0  9997,2 52495  53.2163 142.1690 0001641 110.5944 249.5224 15.08841672 76098,6917.875,95.437,540.876,538.605,0.0
52495.0,STARLINK-3905,PAYLOAD,2023-09-18 23:19:39,15.0884184,0.0001288,53.2164,141.5801,87.6163,272.4976,0.00012675,1.73e-05,0.0,0 STARLINK-3905,1 52495U 22049AW  23261.97198818  .00001730  00000-0  12675-3 0  9992,2 52495  53.2164 141.5801 0001288  87.6163 272.4976 15.08841840 76276,6917.875,95.437,540.631,538.849,0.0
52495.0,STARLINK-3905,PAYLOAD,2023-09-19 02:30:25,15.08853194,0.0001324,53.2163,140.9834,84.0183,276.096,0.00034946,5.28e-05,0.0,0 STARLINK-3905,1 52495U 22049AW  23262.10446428  .00005280  00000-0  34946-3 0  9990,2 52495  53.2163 140.9834 0001324  84.0183 276.0960 15.08853194 76298,6917.84,95.437,540.621,538.789,0.0
52495.0,STARLINK-3905,PAYLOAD,2023-09-19 15:13:30,15.0884533,0.000142,53.2167,138.6062,84.5228,275.5926,0.00020115,2.915e-05,0.0,0 STARLINK-3905,1 52495U 22049AW  23262.63438470  .00002915  00000-0  20115-3 0  9991,2 52495  53.2167 138.6062 0001420  84.5228 275.5926 15.08845330 76379,6917.864,95.437,540.711,538.747,0.0
52495.0,STARLINK-3905,PAYLOAD,2023-09-20 00:45:49,15.08857706,0.0001595,53.2168,136.8232,97.9939,262.1234,0.00030459,4.565e-05,0.0,0 STARLINK-3905,1 52495U 22049AW  23263.03181739  .00004565  00000-0  30459-3 0  9994,2 52495  53.2168 136.8232 0001595  97.9939 262.1234 15.08857706 76430,6917.826,95.436,540.795,538.588,0.0
52495.0,STARLINK-3905,PAYLOAD,2023-09-20 08:42:45,15.0882791,0.0001492,53.2155,135.3327,92.9271,267.1891,-0.00020049,-3.476e-05,0.0,0 STARLINK-3905,1 52495U 22049AW  23263.36302765 -.00003476  00000-0 -20049-3 0  9990,2 52495  53.2155 135.3327 0001492  92.9271 267.1891 15.08827910 76488,6917.917,95.438,540.814,538.75,0.0
52495.0,STARLINK-3905,PAYLOAD,2023-09-20 21:25:52,15.08789385,0.0001666,53.2165,132.9554,95.5652,264.553,-0.00086293,-0.00013976,0.0,0 STARLINK-3905,1 52495U 22049AW  23263.89297269 -.00013976  00000-0 -86293-3 0  9999,2 52495  53.2165 132.9554 0001666  95.5652 264.5530 15.08789385 76405,6918.035,95.441,541.053,538.748,0.0
52495.0,STARLINK-3905,PAYLOAD,2023-09-21 00:36:38,15.08820935,0.0001501,53.2162,132.3601,87.4622,272.6542,-9.5936e-05,-1.814e-05,0.0,0 STARLINK-3905,1 52495U 22049AW  23264.02544708 -.00001814  00000-0 -95936-4 0  9991,2 52495  53.2162 132.3601 0001501  87.4622 272.6542 15.08820935 76583,6917.939,95.439,540.842,538.765,0.0
52495.0,STARLINK-3905,PAYLOAD,2023-09-21 18:05:53,15.08836477,0.0001277,53.2163,129.0884,100.3134,259.8002,6.4435e-05,7.38e-06,0.0,0 STARLINK-3905,1 52495U 22049AW  23264.75408704  .00000738  00000-0  64435-4 0  9998,2 52495  53.2163 129.0884 0001277 100.3134 259.8002 15.08836477 76691,6917.891,95.438,540.64,538.873,0.0
52495.0,STARLINK-3905,PAYLOAD,2023-09-22 00:27:25,15.08847474,0.0001466,53.2162,127.8999,91.8307,268.2853,0.00029658,4.436e-05,0.0,0 STARLINK-3905,1 52495U 22049AW  23265.01904550  .00004436  00000-0  29658-3 0  9994,2 52495  53.2162 127.8999 0001466  91.8307 268.2853 15.08847474 76731,6917.858,95.437,540.737,538.708,0.0
52495.0,STARLINK-3905,PAYLOAD,2023-09-22 21:07:26,15.0886766,0.0001557,53.216,124.0344,90.8237,269.2934,0.00081126,0.00012657,0.0,0 STARLINK-3905,1 52495U 22049AW  23265.88016320  .00012657  00000-0  81126-3 0  9990,2 52495  53.2160 124.0344 0001557  90.8237 269.2934 15.08867660 76701,6917.796,95.436,540.738,538.584,0.0
52495.0,STARLINK-3905,PAYLOAD,2023-09-23 00:18:11,15.08878347,0.0001522,53.2158,123.4391,89.7851,270.3316,0.00083617,0.00013059,0.0,0 STARLINK-3905,1 52495U 22049AW  23266.01263771  .00013059  00000-0  83617-3 0  9994,2 52495  53.2158 123.4391 0001522  89.7851 270.3316 15.08878347 76884,6917.763,95.435,540.681,538.575,0.0
52495.0,STARLINK-3905,PAYLOAD,2023-09-23 17:47:26,15.08856048,0.0001158,53.2163,120.1686,90.83,269.2825,0.00011644,1.567e-05,0.0,0 STARLINK-3905,1 52495U 22049AW  23266.74127519  .00001567  00000-0  11644-3 0  9995,2 52495  53.2163 120.1686 0001158  90.8300 269.2825 15.08856048 76996,6917.831,95.437,540.497,538.895,0.0
52495.0,STARLINK-3905,PAYLOAD,2023-09-24 14:27:27,15.08844287,0.0001227,53.2165,116.3022,86.8204,273.2928,0.00061087,9.449e-05,0.0,0 STARLINK-3905,1 52495U 22049AW  23267.60239632  .00009449  00000-0  61087-3 0  9994,2 52495  53.2165 116.3022 0001227  86.8204 273.2928 15.08844287 76962,6917.867,95.437,540.581,538.883,0.0
52495.0,STARLINK-3905,PAYLOAD,2023-09-24 20:48:59,15.08846123,0.000119,53.2162,115.1126,92.1565,267.9564,-2.2898e-05,-6.52e-06,0.0,0 STARLINK-3905,1 52495U 22049AW  23267.86735418 -.00000652  00000-0 -22898-4 0  9992,2 52495  53.2162 115.1126 0001190  92.1565 267.9564 15.08846123 77160,6917.862,95.437,540.55,538.903,0.0
52495.0,STARLINK-3905,PAYLOAD,2023-09-25 06:21:17,15.08854296,0.0001236,53.2169,113.3277,89.551,270.5624,6.7407e-05,7.85e-06,0.0,0 STARLINK-3905,1 52495U 22049AW  23268.26478837  .00000785  00000-0  67407-4 0  9996,2 52495  53.2169 113.3277 0001236  89.5510 270.5624 15.08854296 77229,6917.837,95.437,540.557,538.847,0.0
52495.0,STARLINK-3905,PAYLOAD,2023-09-25 20:39:46,15.08851033,0.0001226,53.2174,110.6527,87.7357,272.3776,0.00023599,3.471e-05,0.0,0 STARLINK-3905,1 52495U 22049AW  23268.86095137  .00003471  00000-0  23599-3 0  9998,2 52495  53.2174 110.6527 0001226  87.7357 272.3776 15.08851033 77315,6917.847,95.437,540.56,538.864,0.0
52495.0,STARLINK-3905,PAYLOAD,2023-09-26 12:33:38,15.08827289,0.0001267,53.2172,107.6795,94.7089,265.4048,-0.00015311,-2.723e-05,0.0,0 STARLINK-3905,1 52495U 22049AW  23269.52336241 -.00002723  00000-0 -15311-3 0  9990,2 52495  53.2172 107.6795 0001267  94.7089 265.4048 15.08827289 77413,6917.919,95.438,540.661,538.908,0.0
52495.0,STARLINK-3905,PAYLOAD,2023-09-26 18:55:11,15.08829365,0.000143,53.2168,106.4894,101.2157,258.8996,-9.1572e-05,-1.745e-05,0.0,0 STARLINK-3905,1 52495U 22049AW  23269.78832337 -.00001745  00000-0 -91572-4 0  9992,2 52495  53.2168 106.4894 0001430 101.2157 258.8996 15.08829365 77298,6917.913,95.438,540.767,538.789,0.0
52495.0,STARLINK-3905,PAYLOAD,2023-09-27 06:02:53,15.08832985,0.0001385,53.2167,104.4071,91.7283,268.3868,3.5615e-05,2.79e-06,0.0,0 STARLINK-3905,1 52495U 22049AW  23270.25200520  .00000279  00000-0  35615-4 0  9994,2 52495  53.2167 104.4071 0001385  91.7283 268.3868 15.08832985 77526,6917.902,95.438,540.725,538.809,0.0
